#dP2024  8  6  0  0  0.00000000      96 __u+U IGS20 EXT  IAC
## 2326 172800.00000000   900.00000000 60528 0.0000000000000
+   53   G02G03G04G05G06G07G08G09G10G11G12G13G14G15G16G17G18
+        G19G20G21G22G23G24G25G26G27G28G29G30G31G32R01R02R03
+        R04R05R07R08R09R11R12R14R15R16R17R18R19R20R21R22R24
+        R25R26  0  0  0  0  0  0  0  0  0  0  0  0  0  0  0
+          0  0  0  0  0  0  0  0  0  0  0  0  0  0  0  0  0
++         7  8  6  8  7  8  7  7  8  8  8  8  8  8  7  8  7
++         9  9  7  9  9  8  8  6  9  7  9  9  7 10  8  7  8
++         7  7  9  7  8  8  7  9  7  8 10  8  9 10 10  8  8
++         8  9  0  0  0  0  0  0  0  0  0  0  0  0  0  0  0
++         0  0  0  0  0  0  0  0  0  0  0  0  0  0  0  0  0
%c M  cc GPS ccc cccc cccc cccc cccc ccccc ccccc ccccc ccccc
%c cc cc ccc ccc cccc cccc cccc cccc ccccc ccccc ccccc ccccc
%f  0.0000000  0.000000000  0.00000000000  0.000000000000000
%f  0.0000000  0.000000000  0.00000000000  0.000000000000000
%i    0    0    0    0      0      0      0      0         0
%i    0    0    0    0      0      0      0      0         0
/* IAC                                ULTRA-RAPID PREDICTION
/* S/V CLOCKS ARE ALIGNED TO GNSS TIME                      
/* G:C1WC2W R:C1PC2P E:C1XC5X C:C2IC6I J:C1CC2S             
/* PCV:IGS20_2317 OL/AL:FES2004  NONE     YN ORB:CoN CLK:CoN
*  2024 08 06 22  0  0.00000000
PG02 -17048.242334  -3465.957142  20630.070487   -384.152870
PG03 -20484.957144   9379.589837  13806.887459    489.667541
PG04 -25279.555090     16.219931  -8363.642113    419.039223
PG05  14283.856974   5913.470824 -21789.888135   -182.327858
PG06   4374.293052  25534.539245   5657.703848    114.859685
PG07  -9171.284970  15254.459183 -19041.398095    -56.035007
PG08 -25801.860631  -6503.997253  -3258.924264    305.460040
PG09 -18250.395721   9063.572533 -17152.834946    303.627314
PG10   7277.941019 -21726.358975  13349.543285    -86.579868
PG11  12410.020859  21956.011675  -8407.615725   -717.506091
PG12  20700.145423  -5423.242223  15423.786221   -528.326008
PG13  20702.776379  14076.169741  -9441.861245    669.251760
PG14 -10784.490790  22140.368435   9696.672470    466.452059
PG15  26218.660501   3703.895241  -3589.424443    189.654103
PG16 -11210.442249 -10535.757786 -21990.854868   -215.707375
PG17  -3577.411831  14827.742451  22163.482923    660.947509
PG18   8685.314837 -15885.837165 -19340.186854   -643.895223
PG19   6814.999066  16355.665450  19753.165385    521.023307
PG20   7460.412209  15446.356754 -20249.844679    371.955992
PG21 -18023.116044  -9926.906328  17759.455691    104.455710
PG22  -4658.374462  20599.799293  16698.586924    -48.365885
PG23  16075.090696 -20948.213928   1433.493115    291.372306
PG24  17756.895626   5871.203358  18575.768243   -485.634445
PG25  19858.722910 -15831.473454   6967.208962    499.128535
PG26  -1630.263926 -19832.332171 -17568.106781    105.634200
PG27 -19637.828139 -12958.726911 -13017.054437    -32.627610
PG28  -3651.711728 -25116.647827   7815.135644   -362.239353
PG29  21442.265868  -4756.621202 -15070.655382   -585.526496
PG30  -1653.703989  23255.609296 -12320.702810   -344.576350
PG31 -10594.760233 -23813.258975  -4102.173173   -226.118089
PG32    633.367735 -15369.484773  21877.607236   -607.604583
PR01 -14460.897421  -6665.010350  19919.542010     93.710298
PR02 -24665.758108    959.413254   6605.721103    -24.017960
PR03 -21372.728755   8869.583835 -10758.160544    105.154736
PR04  -6652.631384  11320.979035 -21846.708093    248.718746
PR05  11641.009587   8029.335353 -21216.008571    135.689144
PR07  20877.144545  -9094.091343  11477.751271     88.255884
PR08   6193.884472 -11505.060371  21955.810409     -6.292941
PR09  12111.422166  -1186.018713  22451.590482    201.965024
PR11   7496.498846 -24306.438672  -2040.326900     15.735957
PR12  -3616.848786 -16769.100188 -18843.296382     43.330578
PR14 -12909.877435  17581.394190 -13186.996535     26.793195
PR15  -6760.574237  24299.291866   3800.343785     77.113030
PR16   3494.558406  16837.494249  18839.890422     28.024098
PR17  -8858.938447   5938.687521  23175.761895    111.258810
PR18   3728.719335  17612.248942  18065.777061    155.733866
PR19  13052.864226  21238.262520   5438.603192   -286.627340
PR20  17070.404001  11427.186501 -15096.120474   -117.230789
PR21   9268.099568  -5263.997063 -23177.794718   -123.821730
PR22  -4014.389803 -18493.027013 -17082.584671     74.606576
PR24 -17720.275155  -9994.402418  15384.498499    -66.765761
PR25   9147.287833  -6014.766303 -23036.146741    -99.660944
PR26   7735.191883 -11564.446889  21401.259323      8.276705
*  2024 08 06 22 15  0.00000000
PG02 -17923.252493  -5473.106690  19416.176146   -384.146037
PG03 -19498.377186   7952.090351  15950.114456    489.681246
PG04 -26021.674668   -354.902961  -5657.475993    419.045998
PG05  12829.812294   7904.273871 -22057.299413   -182.329053
PG06   3943.515006  24841.434180   8425.031665    114.838075
PG07 -10136.914384  13094.966256 -20140.703681    -56.029291
PG08 -25263.742067  -6676.899671  -6007.654942    305.473518
PG09 -20047.907639   8645.968655 -15251.137191    303.641184
PG10   8277.731969 -22672.648651  10905.973175    -86.589507
PG11  12448.585689  22793.600350  -5698.417402   -717.511389
PG12  19512.080541  -3903.669852  17289.881450   -528.328730
PG13  19519.716122  13886.497364 -11945.713797    669.253803
PG14 -11633.253906  22680.958916   7086.293275    466.459968
PG15  25707.649720   3996.754866  -6310.219684    189.657955
PG16  -9488.849820 -12263.977852 -21864.041145   -215.697957
PG17  -5951.069529  14285.797818  22020.304717    660.939467
PG18   9548.753943 -13765.424623 -20539.710820   -643.898245
PG19   4538.971888  15806.843404  20781.061660    521.028021
PG20   6267.297962  17369.917684 -19078.587452    371.955631
PG21 -18736.026928 -11605.636563  15955.079179    104.453749
PG22  -5970.845526  21721.299452  14716.088631    -48.369735
PG23  16243.699976 -20811.534528  -1472.860073    291.380175
PG24  18545.507009   7839.903084  17089.696017   -485.635268
PG25  19469.870815 -14868.120423   9593.929807    499.128794
PG26   -360.371317 -21272.379167 -15821.567106    105.627519
PG27 -18076.987064 -12879.564995 -15185.312289    -32.628144
PG28  -3038.323178 -24240.909579  10409.216012   -362.252994
PG29  22943.397059  -4221.572103 -12861.190719   -585.524576
PG30  -2467.049456  21881.885566 -14506.550761   -344.570283
PG31 -10406.862747 -24183.337854  -1258.529340   -226.117780
PG32   3063.153689 -14992.777346  21916.585831   -607.602256
PR01 -11969.037780  -7196.678856  21337.918967     93.711363
PR02 -23658.027843    928.478948   9619.942627    -24.018233
PR03 -22468.012362   9255.013850  -7815.261954    105.155212
PR04  -9212.879792  11903.212490 -20573.196342    248.720353
PR05   8990.535695   8487.856521 -22300.141790    135.689708
PR07  22055.414554  -9488.146753   8575.483461     88.256593
PR08   8748.512980 -12100.746159  20726.013893     -6.293037
PR09  11321.550063   1485.070059  22835.931337    201.967252
PR11   7374.149354 -24403.248767   1168.413739     15.734850
PR12  -3019.938959 -18895.723590 -16831.079275     43.330906
PR14 -12295.400261  15904.497647 -15668.364738     26.793320
PR15  -6722.617680  24594.134069    611.974166     77.112698
PR16   2922.124477  18961.679971  16804.698743     28.024346
PR17 -10755.724772   3826.227671  22811.040870    111.261790
PR18   2283.760698  15760.653003  19925.300254    155.735525
PR19  12673.002521  20434.344788   8533.377372   -286.628580
PR20  18280.251922  12643.783739 -12482.209590   -117.230594
PR21  11150.850099  -3144.082614 -22731.607174   -123.824510
PR22  -2665.634720 -16707.830023 -19066.971753     74.599990
PR24 -18964.877076 -11217.067740  12843.632119    -66.767124
PR25  10948.415753  -3839.948084 -22715.787090    -99.662008
PR26  10212.523942 -12172.620904  19978.641892      8.278491
EOF
